[{"OBJECT_NAME":"STARLINK-2424","OBJECT_ID":"2021-018AZ","EPOCH":"2026-03-09T17:23:54.809952","MEAN_MOTION":15.30202261,"ECCENTRICITY":0.0001251,"INCLINATION":53.1586,"RA_OF_ASC_NODE":244.8681,"ARG_OF_PERICENTER":87.0347,"MEAN_ANOMALY":273.0797,"EPHEMERIS_TYPE":0,"CLASSIFICATION_TYPE":"U","NORAD_CAT_ID":47834,"ELEMENT_SET_NO":999,"REV_AT_EPOCH":27675,"BSTAR":0.00013894922,"MEAN_MOTION_DOT":3.758e-5,"MEAN_MOTION_DDOT":0},{"OBJECT_NAME":"OBJECT A","OBJECT_ID":"2025-013A","EPOCH":"2026-03-09T23:29:31.895232","MEAN_MOTION":15.29260221,"ECCENTRICITY":0.0010321,"INCLINATION":97.6364,"RA_OF_ASC_NODE":244.5149,"ARG_OF_PERICENTER":282.3775,"MEAN_ANOMALY":77.6309,"EPHEMERIS_TYPE":0,"CLASSIFICATION_TYPE":"U","NORAD_CAT_ID":62729,"ELEMENT_SET_NO":999,"REV_AT_EPOCH":6276,"BSTAR":0.0013206527,"MEAN_MOTION_DOT":0.00037616,"MEAN_MOTION_DDOT":0}]
